STARLINK-5851           
1 55947U 23037AK  26061.16668981  .01001770  00000+0  26684-1 0  9997
2 55947  70.0004 301.0419 0004223 278.5648  66.7897 15.35500544  5754
STARLINK-34003          
1 63882U 25094U   26060.86379183  .00072959  00000+0  16521-2 0  9994
2 63882  70.0015 226.4136 0003605 271.6712  88.4057 15.42739718 46724
STARLINK-34379          
1 64302U 25123M   26060.76900861  .00031724  00000+0  72397-3 0  9996
2 64302  70.0019 186.3028 0002969 251.2379 108.8481 15.42747825 41131
